ONEWEB-0317             
1 49103U 21075AE  23229.43615078  .00000391  00000+0  10520-2 0  9996
2 49103  87.9029 196.3374 0002322  85.8134 274.3259 13.12445242100455
ONEWEB-0318             
1 49104U 21075AF  23229.42901055  .00000101  00000+0  22462-3 0  9997
2 49104  87.9291 181.2426 0001876  71.2428 288.8907 13.18687691101796
ONEWEB-0319             
1 49105U 21075AG  23230.00016859 -.00010101  00000+0 -26056-1 0  9997
2 49105  87.9176 211.3415 0001632  59.4806 300.6487 13.17703676 98400
ONEWEB-0323             
1 49106U 21075AH  23230.18902444  .00000099  00000+0  24005-3 0  9998
2 49106  87.9023 196.1772 0002039  75.7120 284.4235 13.12443508 99928
ONEWEB-0329             
1 49107U 21075AJ  23229.39892937  .00010874  00000+0  27967-1 0  9995
2 49107  87.9186 211.4633 0002241  80.2391 279.8994 13.17583866 98300
ONEWEB-0330             
1 49108U 21075AK  23229.78074004  .00008683  00000+0  22323-1 0  9992
2 49108  87.9180 211.4050 0002348  80.3664 279.7733 13.17606509 98399
ONEWEB-0292             
1 49186U 21083A   23229.06261480  .00000189  00000+0  48187-3 0  9995
2 49186  87.9088 166.1420 0001994  80.3880 279.7475 13.13472364 96336
ONEWEB-0303             
1 49187U 21083B   23229.34893223  .00000054  00000+0  10355-3 0  9990
2 49187  87.9292 181.2614 0001957  72.5320 287.6026 13.18685861 94878
